[{"OBJECT_NAME":"STARLINK-5130","OBJECT_ID":"2022-125AK","EPOCH":"2026-01-11T14:48:41.869728","MEAN_MOTION":15.08844479,"ECCENTRICITY":0.00012329,"INCLINATION":53.2179,"RA_OF_ASC_NODE":100.558,"ARG_OF_PERICENTER":85.2275,"MEAN_ANOMALY":274.8858,"EPHEMERIS_TYPE":0,"CLASSIFICATION_TYPE":"U","NORAD_CAT_ID":53997,"ELEMENT_SET_NO":999,"REV_AT_EPOCH":18098,"BSTAR":0.00019478519,"MEAN_MOTION_DOT":2.814e-5,"MEAN_MOTION_DDOT":0},{"OBJECT_NAME":"STARLINK-5128","OBJECT_ID":"2022-125AL","EPOCH":"2026-01-11T13:48:59.549472","MEAN_MOTION":15.0884468,"ECCENTRICITY":0.00013331,"INCLINATION":53.2181,"RA_OF_ASC_NODE":110.2778,"ARG_OF_PERICENTER":94.3992,"MEAN_ANOMALY":265.7153,"EPHEMERIS_TYPE":0,"CLASSIFICATION_TYPE":"U","NORAD_CAT_ID":53998,"ELEMENT_SET_NO":999,"REV_AT_EPOCH":18084,"BSTAR":9.6879187e-5,"MEAN_MOTION_DOT":1.254e-5,"MEAN_MOTION_DDOT":0},{"OBJECT_NAME":"STARLINK-5079","OBJECT_ID":"2022-125AM","EPOCH":"2026-01-11T14:10:12.970560","MEAN_MOTION":15.088469,"ECCENTRICITY":0.00012571,"INCLINATION":53.2168,"RA_OF_ASC_NODE":110.3668,"ARG_OF_PERICENTER":83.3448,"MEAN_ANOMALY":276.7687,"EPHEMERIS_TYPE":0,"CLASSIFICATION_TYPE":"U","NORAD_CAT_ID":53999,"ELEMENT_SET_NO":999,"REV_AT_EPOCH":18084,"BSTAR":0.0001911776,"MEAN_MOTION_DOT":2.757e-5,"MEAN_MOTION_DDOT":0},{"OBJECT_NAME":"STARLINK-5088","OBJECT_ID":"2022-125AN","EPOCH":"2026-01-11T13:07:59.930688","MEAN_MOTION":15.08846092,"ECCENTRICITY":0.00012409,"INCLINATION":53.2182,"RA_OF_ASC_NODE":100.8325,"ARG_OF_PERICENTER":87.9268,"MEAN_ANOMALY":272.1866,"EPHEMERIS_TYPE":0,"CLASSIFICATION_TYPE":"U","NORAD_CAT_ID":54000,"ELEMENT_SET_NO":999,"REV_AT_EPOCH":18097,"BSTAR":0.00015844357,"MEAN_MOTION_DOT":2.235e-5,"MEAN_MOTION_DDOT":0},{"OBJECT_NAME":"STARLINK-5109","OBJECT_ID":"2022-125AQ","EPOCH":"2026-01-11T12:04:19.985376","MEAN_MOTION":15.08837704,"ECCENTRICITY":0.00010351,"INCLINATION":53.2173,"RA_OF_ASC_NODE":100.5785,"ARG_OF_PERICENTER":86.162,"MEAN_ANOMALY":273.949,"EPHEMERIS_TYPE":0,"CLASSIFICATION_TYPE":"U","NORAD_CAT_ID":54002,"ELEMENT_SET_NO":999,"REV_AT_EPOCH":18097,"BSTAR":0.00020491191,"MEAN_MOTION_DOT":2.975e-5,"MEAN_MOTION_DDOT":0},{"OBJECT_NAME":"STARLINK-5114","OBJECT_ID":"2022-125AR","EPOCH":"2026-01-11T13:54:18.042336","MEAN_MOTION":15.0884589,"ECCENTRICITY":0.00012054,"INCLINATION":53.2173,"RA_OF_ASC_NODE":110.3001,"ARG_OF_PERICENTER":94.4729,"MEAN_ANOMALY":265.6401,"EPHEMERIS_TYPE":0,"CLASSIFICATION_TYPE":"U","NORAD_CAT_ID":54003,"ELEMENT_SET_NO":999,"REV_AT_EPOCH":18084,"BSTAR":0.0001327915,"MEAN_MOTION_DOT":1.826e-5,"MEAN_MOTION_DDOT":0},{"OBJECT_NAME":"STARLINK-5129","OBJECT_ID":"2022-125AS","EPOCH":"2026-01-11T15:13:45.876000","MEAN_MOTION":15.08844014,"ECCENTRICITY":0.00012137,"INCLINATION":53.2176,"RA_OF_ASC_NODE":109.9362,"ARG_OF_PERICENTER":85.8531,"MEAN_ANOMALY":274.26,"EPHEMERIS_TYPE":0,"CLASSIFICATION_TYPE":"U","NORAD_CAT_ID":54004,"ELEMENT_SET_NO":999,"REV_AT_EPOCH":18085,"BSTAR":0.00011582788,"MEAN_MOTION_DOT":1.556e-5,"MEAN_MOTION_DDOT":0},{"OBJECT_NAME":"STARLINK-5135","OBJECT_ID":"2022-125AT","EPOCH":"2026-01-11T12:08:19.258944","MEAN_MOTION":15.08842613,"ECCENTRICITY":0.00010697,"INCLINATION":53.2175,"RA_OF_ASC_NODE":110.5507,"ARG_OF_PERICENTER":94.5602,"MEAN_ANOMALY":265.5512,"EPHEMERIS_TYPE":0,"CLASSIFICATION_TYPE":"U","NORAD_CAT_ID":54005,"ELEMENT_SET_NO":999,"REV_AT_EPOCH":18083,"BSTAR":0.00012212944,"MEAN_MOTION_DOT":1.657e-5,"MEAN_MOTION_DDOT":0},{"OBJECT_NAME":"STARLINK-5096","OBJECT_ID":"2022-125AU","EPOCH":"2026-01-11T13:22:27.570720","MEAN_MOTION":15.08846514,"ECCENTRICITY":6.889e-5,"INCLINATION":53.2186,"RA_OF_ASC_NODE":110.1711,"ARG_OF_PERICENTER":79.3499,"MEAN_ANOMALY":280.757,"EPHEMERIS_TYPE":0,"CLASSIFICATION_TYPE":"U","NORAD_CAT_ID":54006,"ELEMENT_SET_NO":999,"REV_AT_EPOCH":18083,"BSTAR":0.00010925787,"MEAN_MOTION_DOT":1.452e-5,"MEAN_MOTION_DDOT":0},{"OBJECT_NAME":"STARLINK-5132","OBJECT_ID":"2022-125AV","EPOCH":"2026-01-11T11:57:42.069312","MEAN_MOTION":15.08831125,"ECCENTRICITY":0.00011194,"INCLINATION":53.2178,"RA_OF_ASC_NODE":110.5104,"ARG_OF_PERICENTER":89.2594,"MEAN_ANOMALY":270.8526,"EPHEMERIS_TYPE":0,"CLASSIFICATION_TYPE":"U","NORAD_CAT_ID":54007,"ELEMENT_SET_NO":999,"REV_AT_EPOCH":18083,"BSTAR":0.00021094583,"MEAN_MOTION_DOT":3.07e-5,"MEAN_MOTION_DDOT":0},{"OBJECT_NAME":"STARLINK-5145","OBJECT_ID":"2022-125AW","EPOCH":"2026-01-11T15:04:28.879392","MEAN_MOTION":15.08848545,"ECCENTRICITY":0.00013164,"INCLINATION":53.2177,"RA_OF_ASC_NODE":99.9226,"ARG_OF_PERICENTER":81.9801,"MEAN_ANOMALY":278.1341,"EPHEMERIS_TYPE":0,"CLASSIFICATION_TYPE":"U","NORAD_CAT_ID":54008,"ELEMENT_SET_NO":999,"REV_AT_EPOCH":18099,"BSTAR":0.00015274102,"MEAN_MOTION_DOT":2.144e-5,"MEAN_MOTION_DDOT":0},{"OBJECT_NAME":"STARLINK-5099","OBJECT_ID":"2022-125AX","EPOCH":"2026-01-11T13:27:46.623456","MEAN_MOTION":15.08836725,"ECCENTRICITY":0.00013537,"INCLINATION":53.2185,"RA_OF_ASC_NODE":110.189,"ARG_OF_PERICENTER":89.2812,"MEAN_ANOMALY":270.8335,"EPHEMERIS_TYPE":0,"CLASSIFICATION_TYPE":"U","NORAD_CAT_ID":54009,"ELEMENT_SET_NO":999,"REV_AT_EPOCH":18084,"BSTAR":0.00012679957,"MEAN_MOTION_DOT":1.731e-5,"MEAN_MOTION_DDOT":0},{"OBJECT_NAME":"STARLINK-5127","OBJECT_ID":"2022-125AY","EPOCH":"2026-01-11T13:18:29.901600","MEAN_MOTION":15.08852096,"ECCENTRICITY":6.072e-5,"INCLINATION":53.2179,"RA_OF_ASC_NODE":100.1844,"ARG_OF_PERICENTER":55.2841,"MEAN_ANOMALY":304.8208,"EPHEMERIS_TYPE":0,"CLASSIFICATION_TYPE":"U","NORAD_CAT_ID":54010,"ELEMENT_SET_NO":999,"REV_AT_EPOCH":18098,"BSTAR":4.5808507e-5,"MEAN_MOTION_DOT":4.42e-6,"MEAN_MOTION_DDOT":0},{"OBJECT_NAME":"STARLINK-5124","OBJECT_ID":"2022-125AZ","EPOCH":"2026-01-11T14:38:05.462016","MEAN_MOTION":15.08841543,"ECCENTRICITY":9.271e-5,"INCLINATION":53.2177,"RA_OF_ASC_NODE":100.5152,"ARG_OF_PERICENTER":83.9117,"MEAN_ANOMALY":276.1981,"EPHEMERIS_TYPE":0,"CLASSIFICATION_TYPE":"U","NORAD_CAT_ID":54011,"ELEMENT_SET_NO":999,"REV_AT_EPOCH":18098,"BSTAR":0.00030215351,"MEAN_MOTION_DOT":4.524e-5,"MEAN_MOTION_DDOT":0},{"OBJECT_NAME":"STARLINK-5126","OBJECT_ID":"2022-125BA","EPOCH":"2026-01-11T15:36:19.058112","MEAN_MOTION":15.08847837,"ECCENTRICITY":0.00014339,"INCLINATION":53.2178,"RA_OF_ASC_NODE":100.0552,"ARG_OF_PERICENTER":95.3538,"MEAN_ANOMALY":264.7618,"EPHEMERIS_TYPE":0,"CLASSIFICATION_TYPE":"U","NORAD_CAT_ID":54012,"ELEMENT_SET_NO":999,"REV_AT_EPOCH":18099,"BSTAR":0.00013885177,"MEAN_MOTION_DOT":1.923e-5,"MEAN_MOTION_DDOT":0},{"OBJECT_NAME":"STARLINK-5098","OBJECT_ID":"2022-125BB","EPOCH":"2026-01-11T12:36:09.491040","MEAN_MOTION":15.08849316,"ECCENTRICITY":0.00013734,"INCLINATION":53.2185,"RA_OF_ASC_NODE":100.6963,"ARG_OF_PERICENTER":92.7639,"MEAN_ANOMALY":267.351,"EPHEMERIS_TYPE":0,"CLASSIFICATION_TYPE":"U","NORAD_CAT_ID":54013,"ELEMENT_SET_NO":999,"REV_AT_EPOCH":18097,"BSTAR":9.8905169e-5,"MEAN_MOTION_DOT":1.287e-5,"MEAN_MOTION_DDOT":0}]
