STARLINK-5130           
1 53997U 22125AK  26011.61715127  .00002814  00000+0  19479-3 0  9992
2 53997  53.2179 100.5580 0001232  85.2275 274.8858 15.08844479180986
STARLINK-5128           
1 53998U 22125AL  26011.57568923  .00001254  00000+0  96879-4 0  9995
2 53998  53.2181 110.2778 0001333  94.3992 265.7153 15.08844680180842
STARLINK-5079           
1 53999U 22125AM  26011.59042790  .00002757  00000+0  19118-3 0  9996
2 53999  53.2168 110.3668 0001257  83.3448 276.7687 15.08846900180847
STARLINK-5088           
1 54000U 22125AN  26011.54722142  .00002235  00000+0  15844-3 0  9994
2 54000  53.2182 100.8325 0001240  87.9268 272.1866 15.08846092180978
STARLINK-5109           
1 54002U 22125AQ  26011.50300909  .00002975  00000+0  20491-3 0  9990
2 54002  53.2173 100.5785 0001035  86.1620 273.9490 15.08837704180974
STARLINK-5114           
1 54003U 22125AR  26011.57937549  .00001826  00000+0  13279-3 0  9994
2 54003  53.2173 110.3001 0001205  94.4729 265.6401 15.08845890180847
STARLINK-5129           
1 54004U 22125AS  26011.63455875  .00001556  00000+0  11583-3 0  9995
2 54004  53.2176 109.9362 0001213  85.8531 274.2600 15.08844014180854
STARLINK-5135           
1 54005U 22125AT  26011.50577846  .00001657  00000+0  12213-3 0  9998
2 54005  53.2175 110.5507 0001069  94.5602 265.5512 15.08842613180834
STARLINK-5096           
1 54006U 22125AU  26011.55726355  .00001452  00000+0  10926-3 0  9997
2 54006  53.2186 110.1711 0000688  79.3499 280.7570 15.08846514180838
STARLINK-5132           
1 54007U 22125AV  26011.49840358  .00003070  00000+0  21095-3 0  9998
2 54007  53.2178 110.5104 0001119  89.2594 270.8526 15.08831125180839
STARLINK-5145           
1 54008U 22125AW  26011.62811203  .00002144  00000+0  15274-3 0  9994
2 54008  53.2177  99.9226 0001316  81.9801 278.1341 15.08848545180990
STARLINK-5099           
1 54009U 22125AX  26011.56095629  .00001731  00000+0  12680-3 0  9993
2 54009  53.2185 110.1890 0001353  89.2812 270.8335 15.08836725180840
STARLINK-5127           
1 54010U 22125AY  26011.55451275  .00000442  00000+0  45809-4 0  9995
2 54010  53.2179 100.1844 0000607  55.2841 304.8208 15.08852096180980
STARLINK-5124           
1 54011U 22125AZ  26011.60978544  .00004524  00000+0  30215-3 0  9994
2 54011  53.2177 100.5152 0000927  83.9117 276.1981 15.08841543180988
STARLINK-5126           
1 54012U 22125BA  26011.65022058  .00001923  00000+0  13885-3 0  9994
2 54012  53.2178 100.0552 0001433  95.3538 264.7618 15.08847837180999
STARLINK-5098           
1 54013U 22125BB  26011.52510985  .00001287  00000+0  98905-4 0  9992
2 54013  53.2185 100.6963 0001373  92.7639 267.3510 15.08849316180978
